STARLINK-6041           
1 56478U 23064AG  26068.51797107  .00004877  00000+0  41651-3 0  9999
2 56478  69.9997 124.8907 0003042 271.0430  89.0380 14.98304487155713
LEMUR-2-MARACHE-FRAN    
1 63262U 25052BE  26068.70885648  .00008220  00000+0  68460-3 0  9999
2 63262  97.6985 323.5335 0002324  45.7689 314.3725 14.98898773 53859
